ONEWEB-0212             
1 48791U 21045AA  25275.07132418  .00000056  00000+0  11403-3 0  9990
2 48791  87.9001 310.6861 0001908  96.1195 264.0152 13.15549933210499
ONEWEB-0227             
1 48792U 21045AB  25275.07054485  .00000022  00000+0  23680-4 0  9992
2 48792  87.8991 310.7038 0001788  99.5417 260.5916 13.15547530210449
ONEWEB-0226             
1 48793U 21045AC  25275.14025117 -.00000212  00000+0 -59797-3 0  9991
2 48793  87.8995 310.6975 0001496  98.9761 261.1538 13.15547100210422
ONEWEB-0224             
1 48794U 21045AD  25275.10382292  .00000094  00000+0  21553-3 0  9993
2 48794  87.8999 310.7398 0002436 116.8244 243.3136 13.15548581210349
ONEWEB-0233             
1 48795U 21045AE  25275.10841970 -.00000118  00000+0 -34882-3 0  9995
2 48795  87.8998 310.7500 0001758 106.1610 253.9714 13.15548372210368
ONEWEB-0190             
1 48796U 21045AF  25275.09588780  .00000199  00000+0  49354-3 0  9998
2 48796  87.8995 310.7150 0001364 118.3553 241.7715 13.15547725210436
ONEWEB-0236             
1 48797U 21045AG  25275.11331123  .00000053  00000+0  10654-3 0  9999
2 48797  87.8999 310.7225 0002013  94.5432 265.5929 13.15546998210327
ONEWEB-0248             
1 48798U 21045AH  25275.12598443 -.00000042  00000+0 -14554-3 0  9994
2 48798  87.9005 310.6763 0001897 115.3830 244.7497 13.15546315210485
ONEWEB-0225             
1 48799U 21045AJ  25275.07211330 -.00000144  00000+0 -41640-3 0  9995
2 48799  87.8996 310.7170 0001471 113.0309 247.0976 13.15547935210488
ONEWEB-0215             
1 48800U 21045AK  25275.11808226 -.00000039  00000+0 -13872-3 0  9998
2 48800  87.9009 310.6613 0001644 117.8581 242.2716 13.15549117210364
ONEWEB-0216             
1 48801U 21045AL  25275.12758816 -.00000179  00000+0 -51041-3 0  9994
2 48801  87.8994 310.6980 0001652  92.6818 267.4502 13.15548824210373
ONEWEB-0239             
1 48802U 21045AM  25275.13232169 -.00000112  00000+0 -33183-3 0  9998
2 48802  87.8997 310.7115 0001933 120.7587 239.3734 13.15546523210410
ONEWEB-0249             
1 48967U 21060A   25275.04240807 -.00000039  00000+0 -13507-3 0  9991
2 48967  87.8969 280.2189 0001946  93.3321 266.8033 13.16596187205646
ONEWEB-0250             
1 48968U 21060B   25275.05512073 -.00000020  00000+0 -75066-4 0  9999
2 48968  87.8972 278.8176 0002683 106.9669 253.1762 13.25815009206012
ONEWEB-0252             
1 48970U 21060D   25275.07408132 -.00000015  00000+0 -73187-4 0  9990
2 48970  87.8969 280.2060 0001760  80.9803 279.1527 13.16592584205696
ONEWEB-0253             
1 48971U 21060E   25275.06299751  .00000046  00000+0  86456-4 0  9990
2 48971  87.8973 280.2114 0001747  95.5829 264.5501 13.16594480205627
ONEWEB-0254             
1 48972U 21060F   25275.07250568  .00000049  00000+0  94531-4 0  9991
2 48972  87.8973 280.1976 0001827 103.9566 256.1768 13.16595581205629
