[{"OBJECT_NAME":"ONEWEB-0212","OBJECT_ID":"2021-045AA","EPOCH":"2025-10-02T01:42:42.409152","MEAN_MOTION":13.15549933,"ECCENTRICITY":0.0001908,"INCLINATION":87.9001,"RA_OF_ASC_NODE":310.6861,"ARG_OF_PERICENTER":96.1195,"MEAN_ANOMALY":264.0152,"EPHEMERIS_TYPE":0,"CLASSIFICATION_TYPE":"U","NORAD_CAT_ID":48791,"ELEMENT_SET_NO":999,"REV_AT_EPOCH":21049,"BSTAR":0.00011403,"MEAN_MOTION_DOT":5.6e-7,"MEAN_MOTION_DDOT":0},{"OBJECT_NAME":"ONEWEB-0227","OBJECT_ID":"2021-045AB","EPOCH":"2025-10-02T01:41:35.075040","MEAN_MOTION":13.1554753,"ECCENTRICITY":0.0001788,"INCLINATION":87.8991,"RA_OF_ASC_NODE":310.7038,"ARG_OF_PERICENTER":99.5417,"MEAN_ANOMALY":260.5916,"EPHEMERIS_TYPE":0,"CLASSIFICATION_TYPE":"U","NORAD_CAT_ID":48792,"ELEMENT_SET_NO":999,"REV_AT_EPOCH":21044,"BSTAR":2.368e-5,"MEAN_MOTION_DOT":2.2e-7,"MEAN_MOTION_DDOT":0},{"OBJECT_NAME":"ONEWEB-0226","OBJECT_ID":"2021-045AC","EPOCH":"2025-10-02T03:21:57.701088","MEAN_MOTION":13.155471,"ECCENTRICITY":0.0001496,"INCLINATION":87.8995,"RA_OF_ASC_NODE":310.6975,"ARG_OF_PERICENTER":98.9761,"MEAN_ANOMALY":261.1538,"EPHEMERIS_TYPE":0,"CLASSIFICATION_TYPE":"U","NORAD_CAT_ID":48793,"ELEMENT_SET_NO":999,"REV_AT_EPOCH":21042,"BSTAR":-0.00059797,"MEAN_MOTION_DOT":-2.12e-6,"MEAN_MOTION_DDOT":0},{"OBJECT_NAME":"ONEWEB-0224","OBJECT_ID":"2021-045AD","EPOCH":"2025-10-02T02:29:30.300288","MEAN_MOTION":13.15548581,"ECCENTRICITY":0.0002436,"INCLINATION":87.8999,"RA_OF_ASC_NODE":310.7398,"ARG_OF_PERICENTER":116.8244,"MEAN_ANOMALY":243.3136,"EPHEMERIS_TYPE":0,"CLASSIFICATION_TYPE":"U","NORAD_CAT_ID":48794,"ELEMENT_SET_NO":999,"REV_AT_EPOCH":21034,"BSTAR":0.00021553,"MEAN_MOTION_DOT":9.4e-7,"MEAN_MOTION_DDOT":0},{"OBJECT_NAME":"ONEWEB-0233","OBJECT_ID":"2021-045AE","EPOCH":"2025-10-02T02:36:07.462080","MEAN_MOTION":13.15548372,"ECCENTRICITY":0.0001758,"INCLINATION":87.8998,"RA_OF_ASC_NODE":310.75,"ARG_OF_PERICENTER":106.161,"MEAN_ANOMALY":253.9714,"EPHEMERIS_TYPE":0,"CLASSIFICATION_TYPE":"U","NORAD_CAT_ID":48795,"ELEMENT_SET_NO":999,"REV_AT_EPOCH":21036,"BSTAR":-0.00034882,"MEAN_MOTION_DOT":-1.18e-6,"MEAN_MOTION_DDOT":0},{"OBJECT_NAME":"ONEWEB-0190","OBJECT_ID":"2021-045AF","EPOCH":"2025-10-02T02:18:04.705920","MEAN_MOTION":13.15547725,"ECCENTRICITY":0.0001364,"INCLINATION":87.8995,"RA_OF_ASC_NODE":310.715,"ARG_OF_PERICENTER":118.3553,"MEAN_ANOMALY":241.7715,"EPHEMERIS_TYPE":0,"CLASSIFICATION_TYPE":"U","NORAD_CAT_ID":48796,"ELEMENT_SET_NO":999,"REV_AT_EPOCH":21043,"BSTAR":0.00049354,"MEAN_MOTION_DOT":1.99e-6,"MEAN_MOTION_DDOT":0},{"OBJECT_NAME":"ONEWEB-0236","OBJECT_ID":"2021-045AG","EPOCH":"2025-10-02T02:43:10.090272","MEAN_MOTION":13.15546998,"ECCENTRICITY":0.0002013,"INCLINATION":87.8999,"RA_OF_ASC_NODE":310.7225,"ARG_OF_PERICENTER":94.5432,"MEAN_ANOMALY":265.5929,"EPHEMERIS_TYPE":0,"CLASSIFICATION_TYPE":"U","NORAD_CAT_ID":48797,"ELEMENT_SET_NO":999,"REV_AT_EPOCH":21032,"BSTAR":0.00010654,"MEAN_MOTION_DOT":5.3e-7,"MEAN_MOTION_DDOT":0},{"OBJECT_NAME":"ONEWEB-0248","OBJECT_ID":"2021-045AH","EPOCH":"2025-10-02T03:01:25.054752","MEAN_MOTION":13.15546315,"ECCENTRICITY":0.0001897,"INCLINATION":87.9005,"RA_OF_ASC_NODE":310.6763,"ARG_OF_PERICENTER":115.383,"MEAN_ANOMALY":244.7497,"EPHEMERIS_TYPE":0,"CLASSIFICATION_TYPE":"U","NORAD_CAT_ID":48798,"ELEMENT_SET_NO":999,"REV_AT_EPOCH":21048,"BSTAR":-0.00014554,"MEAN_MOTION_DOT":-4.2e-7,"MEAN_MOTION_DDOT":0},{"OBJECT_NAME":"ONEWEB-0225","OBJECT_ID":"2021-045AJ","EPOCH":"2025-10-02T01:43:50.589120","MEAN_MOTION":13.15547935,"ECCENTRICITY":0.0001471,"INCLINATION":87.8996,"RA_OF_ASC_NODE":310.717,"ARG_OF_PERICENTER":113.0309,"MEAN_ANOMALY":247.0976,"EPHEMERIS_TYPE":0,"CLASSIFICATION_TYPE":"U","NORAD_CAT_ID":48799,"ELEMENT_SET_NO":999,"REV_AT_EPOCH":21048,"BSTAR":-0.0004164,"MEAN_MOTION_DOT":-1.44e-6,"MEAN_MOTION_DDOT":0},{"OBJECT_NAME":"ONEWEB-0215","OBJECT_ID":"2021-045AK","EPOCH":"2025-10-02T02:50:02.307264","MEAN_MOTION":13.15549117,"ECCENTRICITY":0.0001644,"INCLINATION":87.9009,"RA_OF_ASC_NODE":310.6613,"ARG_OF_PERICENTER":117.8581,"MEAN_ANOMALY":242.2716,"EPHEMERIS_TYPE":0,"CLASSIFICATION_TYPE":"U","NORAD_CAT_ID":48800,"ELEMENT_SET_NO":999,"REV_AT_EPOCH":21036,"BSTAR":-0.00013872,"MEAN_MOTION_DOT":-3.9e-7,"MEAN_MOTION_DDOT":0},{"OBJECT_NAME":"ONEWEB-0216","OBJECT_ID":"2021-045AL","EPOCH":"2025-10-02T03:03:43.617024","MEAN_MOTION":13.15548824,"ECCENTRICITY":0.0001652,"INCLINATION":87.8994,"RA_OF_ASC_NODE":310.698,"ARG_OF_PERICENTER":92.6818,"MEAN_ANOMALY":267.4502,"EPHEMERIS_TYPE":0,"CLASSIFICATION_TYPE":"U","NORAD_CAT_ID":48801,"ELEMENT_SET_NO":999,"REV_AT_EPOCH":21037,"BSTAR":-0.00051041,"MEAN_MOTION_DOT":-1.79e-6,"MEAN_MOTION_DDOT":0},{"OBJECT_NAME":"ONEWEB-0239","OBJECT_ID":"2021-045AM","EPOCH":"2025-10-02T03:10:32.594016","MEAN_MOTION":13.15546523,"ECCENTRICITY":0.0001933,"INCLINATION":87.8997,"RA_OF_ASC_NODE":310.7115,"ARG_OF_PERICENTER":120.7587,"MEAN_ANOMALY":239.3734,"EPHEMERIS_TYPE":0,"CLASSIFICATION_TYPE":"U","NORAD_CAT_ID":48802,"ELEMENT_SET_NO":999,"REV_AT_EPOCH":21041,"BSTAR":-0.00033183,"MEAN_MOTION_DOT":-1.12e-6,"MEAN_MOTION_DDOT":0},{"OBJECT_NAME":"ONEWEB-0249","OBJECT_ID":"2021-060A","EPOCH":"2025-10-02T01:01:04.057248","MEAN_MOTION":13.16596187,"ECCENTRICITY":0.0001946,"INCLINATION":87.8969,"RA_OF_ASC_NODE":280.2189,"ARG_OF_PERICENTER":93.3321,"MEAN_ANOMALY":266.8033,"EPHEMERIS_TYPE":0,"CLASSIFICATION_TYPE":"U","NORAD_CAT_ID":48967,"ELEMENT_SET_NO":999,"REV_AT_EPOCH":20564,"BSTAR":-0.00013507,"MEAN_MOTION_DOT":-3.9e-7,"MEAN_MOTION_DDOT":0},{"OBJECT_NAME":"ONEWEB-0250","OBJECT_ID":"2021-060B","EPOCH":"2025-10-02T01:19:22.431072","MEAN_MOTION":13.25815009,"ECCENTRICITY":0.0002683,"INCLINATION":87.8972,"RA_OF_ASC_NODE":278.8176,"ARG_OF_PERICENTER":106.9669,"MEAN_ANOMALY":253.1762,"EPHEMERIS_TYPE":0,"CLASSIFICATION_TYPE":"U","NORAD_CAT_ID":48968,"ELEMENT_SET_NO":999,"REV_AT_EPOCH":20601,"BSTAR":-7.5066e-5,"MEAN_MOTION_DOT":-2.0e-7,"MEAN_MOTION_DDOT":0},{"OBJECT_NAME":"ONEWEB-0252","OBJECT_ID":"2021-060D","EPOCH":"2025-10-02T01:46:40.626048","MEAN_MOTION":13.16592584,"ECCENTRICITY":0.000176,"INCLINATION":87.8969,"RA_OF_ASC_NODE":280.206,"ARG_OF_PERICENTER":80.9803,"MEAN_ANOMALY":279.1527,"EPHEMERIS_TYPE":0,"CLASSIFICATION_TYPE":"U","NORAD_CAT_ID":48970,"ELEMENT_SET_NO":999,"REV_AT_EPOCH":20569,"BSTAR":-7.3187e-5,"MEAN_MOTION_DOT":-1.5e-7,"MEAN_MOTION_DDOT":0},{"OBJECT_NAME":"ONEWEB-0253","OBJECT_ID":"2021-060E","EPOCH":"2025-10-02T01:30:42.984864","MEAN_MOTION":13.1659448,"ECCENTRICITY":0.0001747,"INCLINATION":87.8973,"RA_OF_ASC_NODE":280.2114,"ARG_OF_PERICENTER":95.5829,"MEAN_ANOMALY":264.5501,"EPHEMERIS_TYPE":0,"CLASSIFICATION_TYPE":"U","NORAD_CAT_ID":48971,"ELEMENT_SET_NO":999,"REV_AT_EPOCH":20562,"BSTAR":8.6456e-5,"MEAN_MOTION_DOT":4.6e-7,"MEAN_MOTION_DDOT":0},{"OBJECT_NAME":"ONEWEB-0254","OBJECT_ID":"2021-060F","EPOCH":"2025-10-02T01:44:24.490752","MEAN_MOTION":13.16595581,"ECCENTRICITY":0.0001827,"INCLINATION":87.8973,"RA_OF_ASC_NODE":280.1976,"ARG_OF_PERICENTER":103.9566,"MEAN_ANOMALY":256.1768,"EPHEMERIS_TYPE":0,"CLASSIFICATION_TYPE":"U","NORAD_CAT_ID":48972,"ELEMENT_SET_NO":999,"REV_AT_EPOCH":20562,"BSTAR":9.4531e-5,"MEAN_MOTION_DOT":4.9e-7,"MEAN_MOTION_DDOT":0}]
